NORAD_CAT_ID,OBJECT_NAME,OBJECT_TYPE,EPOCH,MEAN_MOTION,ECCENTRICITY,INCLINATION,RA_OF_ASC_NODE,ARG_OF_PERICENTER,MEAN_ANOMALY,BSTAR,MEAN_MOTION_DOT,MEAN_MOTION_DDOT,TLE_LINE0,TLE_LINE1,TLE_LINE2,SEMIMAJOR_AXIS,PERIOD,APOGEE,PERIGEE,DECAYED
54056.0,STARLINK-5226,PAYLOAD,2022-10-25 16:00:00,15.89861015,0.0031619,53.2174,123.275,56.1606,167.3921,-0.0043036,-0.01367828,0.00052976,0 STARLINK-5226,1 54056U 22136F   22298.66667824 -.01367828  52976-3 -43036-2 0  9999,2 54056  53.2174 123.2750 0031619  56.1606 167.3921 15.89861015  1305,6680.809,90.574,323.798,281.55,0.0
54056.0,STARLINK-5226,PAYLOAD,2022-10-25 22:00:01,15.89171238,0.0028561999999999,53.2174,122.0092,57.13399999999999,157.9,-0.0042753999999999,-0.01301414,0.00048069,0 STARLINK-5226,1 54056U 22136F   22298.91668981 -.01301414  48069-3 -42754-2 0  9995,2 54056  53.2174 122.0092 0028562  57.1340 157.9000 15.89171238  1304,6682.7419999999975,90.613,323.694,285.52,0.0
54056.0,STARLINK-5226,PAYLOAD,2022-10-26 06:00:00,15.88339058,0.0025029,53.2174,120.3196,56.8163,265.7547,-0.0047074,-0.01361444,0.00051784,0 STARLINK-5226,1 54056U 22136F   22299.25001157 -.01361444  51784-3 -47074-2 0  9996,2 54056  53.2174 120.3196 0025029  56.8163 265.7547 15.88339058  1392,6685.076,90.661,323.673,290.209,0.0
54056.0,STARLINK-5226,PAYLOAD,2022-10-26 14:00:01,15.87430026,0.0022167,53.2174,118.6335,56.4649,12.6974,-0.0046578,-0.01280465,0.00045923,0 STARLINK-5226,1 54056U 22136F   22299.58334491 -.01280465  45923-3 -46578-2 0  9991,2 54056  53.2174 118.6335 0022167  56.4649  12.6974 15.87430026  1302,6687.628000000002,90.713,324.318,294.6690000000001,0.0
54056.0,STARLINK-5226,PAYLOAD,2022-10-26 22:00:00,15.86589375,0.0018758,53.2176,116.9518,54.4885,120.1946,-0.0050896,-0.01333602,0.00049077,0 STARLINK-5226,1 54056U 22136F   22299.91667824 -.01333602  49077-3 -50896-2 0  9991,2 54056  53.2176 116.9518 0018758  54.4885 120.1946 15.86589375  1304,6689.99,90.761,324.404,299.306,0.0
54056.0,STARLINK-5226,PAYLOAD,2022-10-27 14:00:01,15.84888963,0.0012285,53.2171,113.5892,53.5881,329.08,-0.0058124,-0.01243039,0.0,0 STARLINK-5226,1 54056U 22136F   22300.58335648 -.01243039  00000-0 -58124-2 0  9999,2 54056  53.2171 113.5892 0012285  53.5881 329.0800 15.84888963  1304,6694.774,90.858,324.8640000000001,308.415,0.0
54056.0,STARLINK-5226,PAYLOAD,2022-10-27 22:00:00,15.83960076,0.0009804,53.2174,111.9142,50.1847,74.8471,-0.0056234,-0.01135215,0.0,0 STARLINK-5226,1 54056U 22136F   22300.91667824 -.01135215  00000-0 -56234-2 0  9996,2 54056  53.2174 111.9142 0009804  50.1847  74.8471 15.83960076  1309,6697.392,90.911,325.823,312.69,0.0
54056.0,STARLINK-5226,PAYLOAD,2022-10-28 08:00:01,15.82907599,0.0005406,53.2174,109.8183,34.7979,306.827,-0.0062288999999999,-0.01205892,0.0,0 STARLINK-5226,1 54056U 22136F   22301.33335648 -.01205892  00000-0 -62289-2 0  9995,2 54056  53.2174 109.8183 0005406  34.7979 306.8270 15.82907599  1729,6700.36,90.972,325.847,318.603,0.0
54056.0,STARLINK-5226,PAYLOAD,2022-10-28 14:00:01,15.82257572,0.0003966,53.2174,108.5644,20.442,306.3228,-0.0064429,-0.01207837,0.0,0 STARLINK-5226,1 54056U 22136F   22301.58335648 -.01207837  00000-0 -64429-2 0  9991,2 54056  53.2174 108.5644 0003966  20.4420 306.3228 15.82257572  1300,6702.195,91.009,326.718,321.402,0.0
54056.0,STARLINK-5226,PAYLOAD,2022-10-28 22:00:01,15.81370157,0.0003153999999999,53.2173,106.8957,320.3401,105.703,-0.0064903999999999,-0.0117076,0.0,0 STARLINK-5226,1 54056U 22136F   22301.91668981 -.01170760  00000-0 -64904-2 0  9999,2 54056  53.2173 106.8957 0003154 320.3401 105.7030 15.81370157  1303,6704.7019999999975,91.06,328.682,324.452,0.0
54056.0,STARLINK-5226,PAYLOAD,2022-10-29 12:00:00,15.79757016,0.0006057,53.217,103.9748,276.0746,231.1747,-0.0062142,-0.01036903,0.0,0 STARLINK-5226,1 54056U 22136F   22302.50001157 -.01036903  00000-0 -62142-2 0  9993,2 54056  53.2170 103.9748 0006057 276.0746 231.1747 15.79757016  1309,6709.266,91.153,335.194,327.067,0.0
54056.0,STARLINK-5226,PAYLOAD,2022-10-29 22:00:01,15.78809858,0.0005528,53.2172,101.8965,271.2428,86.3453,-0.00772,-0.01231315,0.0,0 STARLINK-5226,1 54056U 22136F   22302.91668981 -.01231315  00000-0 -77200-2 0  9997,2 54056  53.2172 101.8965 0005528 271.2428  86.3453 15.78809858  1300,6711.949000000001,91.208,337.524,330.103,0.0
54056.0,STARLINK-5226,PAYLOAD,2022-10-30 00:00:00,15.78579653,0.0004666,53.2172,101.48,272.3308,199.0752,-0.0077458,-0.01222792,0.0,0 STARLINK-5226,1 54056U 22136F   22303.00001157 -.01222792  00000-0 -77458-2 0  9998,2 54056  53.2172 101.4800 0004666 272.3308 199.0752 15.78579653  1980,6712.601,91.221,337.598,331.334,0.0
54056.0,STARLINK-5226,PAYLOAD,2022-10-30 14:00:01,15.77025002,0.0003559,53.2175,98.5721,269.3632,277.3444,-0.0078894999999999,-0.01166819,0.0,0 STARLINK-5226,1 54056U 22136F   22303.58334491 -.01166819  00000-0 -78895-2 0  9994,2 54056  53.2175  98.5721 0003559 269.3632 277.3444 15.77025002  1304,6717.012,91.311,341.26800000000014,336.486,0.0
54056.0,STARLINK-5226,PAYLOAD,2022-10-30 22:00:01,15.76190463,1.8e-05,53.2172,96.9165,325.2631,314.5101,-0.0085282,-0.01207763,0.0,0 STARLINK-5226,1 54056U 22136F   22303.91668981 -.01207763  00000-0 -85282-2 0  9997,2 54056  53.2172  96.9165 0000180 325.2631 314.5101 15.76190463  1300,6719.3830000000025,91.36,341.369,341.1269999999999,0.0
54056.0,STARLINK-5226,PAYLOAD,2022-10-31 14:00:01,15.74400109,0.0001004999999999,53.2172,93.6058,61.847,40.7771,-0.0082893999999999,-0.01097864,0.0,0 STARLINK-5226,1 54056U 22136F   22304.58334491 -.01097864  00000-0 -82894-2 0  9992,2 54056  53.2172  93.6058 0001005  61.8470  40.7771 15.74400109  1306,6724.476,91.463,347.017,345.665,0.0
54056.0,STARLINK-5226,PAYLOAD,2022-10-31 22:00:01,15.73474862,9.97e-05,53.2171,91.9557,58.9525,133.6295,-0.0027825,-0.00378489,0.0,0 STARLINK-5226,1 54056U 22136F   22304.91668981 -.00378489  00000-0 -27825-2 0  9990,2 54056  53.2171  91.9557 0000997  58.9525 133.6295 15.73474862  1306,6727.111999999999,91.517,349.647,348.306,0.0
54056.0,STARLINK-5226,PAYLOAD,2022-11-01 06:00:00,15.73274128,0.0001356,53.2159,90.3077,62.5916,219.008,-0.0002048,-0.00029354,0.0,0 STARLINK-5226,1 54056U 22136F   22305.25001157 -.00029354  00000-0 -20480-3 0  9999,2 54056  53.2159  90.3077 0001356  62.5916 219.0080 15.73274128  2346,6727.684,91.529,350.461,348.63699999999994,0.0
54056.0,STARLINK-5226,PAYLOAD,2022-11-01 14:00:01,15.73236302,0.0001474,53.2157,88.6592,60.1261,310.4755,-0.00044878,-0.00063231,0.0,0 STARLINK-5226,1 54056U 22136F   22305.58334491 -.00063231  00000-0 -44878-3 0  9994,2 54056  53.2157  88.6592 0001474  60.1261 310.4755 15.73236302  1306,6727.792,91.531,350.648,348.665,0.0
54056.0,STARLINK-5226,PAYLOAD,2022-11-01 22:00:00,15.73232555,0.0001367,53.2151,87.0103,38.8975,60.6851,-8.1503e-05,-0.00012058,0.0,0 STARLINK-5226,1 54056U 22136F   22305.91667824 -.00012058  00000-0 -81503-4 0  9998,2 54056  53.2151  87.0103 0001367  38.8975  60.6851 15.73232555  1303,6727.802,91.531,350.587,348.74800000000016,0.0
54056.0,STARLINK-5226,PAYLOAD,2022-11-02 14:00:01,15.73123839,0.0001443,53.2167,83.7071,58.5695,218.9385,-0.00046677,-0.00065409,0.0,0 STARLINK-5226,1 54056U 22136F   22306.58334491 -.00065409  00000-0 -46677-3 0  9993,2 54056  53.2167  83.7071 0001443  58.5695 218.9385 15.73123839  2552,6728.111999999999,91.538,350.9480000000001,349.006,0.0
54056.0,STARLINK-5226,PAYLOAD,2022-11-02 22:00:00,15.7319047,0.0001538,53.2152,82.0615,34.6735,331.7126,0.0004193,0.00058614,0.0,0 STARLINK-5226,1 54056U 22136F   22306.91667824  .00058614  00000-0  41930-3 0  9994,2 54056  53.2152  82.0615 0001538  34.6735 331.7126 15.73190470  2605,6727.922,91.534,350.82199999999995,348.75300000000016,0.0
54056.0,STARLINK-5226,PAYLOAD,2022-11-03 08:00:01,15.7320449,0.0001098,53.2175,79.9932,57.4105,150.0355,-7.116100000000002e-07,-7.19e-06,0.0,0 STARLINK-5226,1 54056U 22136F   22307.33334491 -.00000719  00000-0 -71161-6 0  9999,2 54056  53.2175  79.9932 0001098  57.4105 150.0355 15.73204490  2673,6727.882,91.533,350.486,349.009,0.0
54056.0,STARLINK-5226,PAYLOAD,2022-11-03 14:00:01,15.7320582,0.000153,53.2151,78.7619,38.1977,146.0255,-0.00040862,-0.00057592,0.0,0 STARLINK-5226,1 54056U 22136F   22307.58334491 -.00057592  00000-0 -40862-3 0  9998,2 54056  53.2151  78.7619 0001530  38.1977 146.0255 15.73205820  1301,6727.879,91.533,350.773,348.714,0.0
54056.0,STARLINK-5226,PAYLOAD,2022-11-03 22:00:00,15.7321157,0.0001599,53.2145,77.1127,31.2765,241.8538,0.000189,0.00026,0.0,0 STARLINK-5226,1 54056U 22136F   22307.91667824  .00026000  00000-0  18900-3 0  9990,2 54056  53.2145  77.1127 0001599  31.2765 241.8538 15.73211570  2763,6727.861999999999,91.533,350.80300000000005,348.651,0.0
54056.0,STARLINK-5226,PAYLOAD,2022-11-04 14:00:01,15.73240251,0.000181,53.2151,73.8134,40.8542,50.2094,0.00035975,0.00050259,0.0,0 STARLINK-5226,1 54056U 22136F   22308.58334491  .00050259  00000-0  35975-3 0  9999,2 54056  53.2151  73.8134 0001810  40.8542  50.2094 15.73240251  1302,6727.78,91.531,350.86300000000006,348.42800000000005,0.0
54056.0,STARLINK-5226,PAYLOAD,2022-11-04 22:00:01,15.73207486,0.0001878,53.215,72.1638,33.2547,146.727,-0.00015921,-0.00022913,0.0,0 STARLINK-5226,1 54056U 22136F   22308.91668981 -.00022913  00000-0 -15921-3 0  9997,2 54056  53.2150  72.1638 0001878  33.2547 146.7270 15.73207486  2915,6727.874,91.533,351.00199999999984,348.475,0.0
54056.0,STARLINK-5226,PAYLOAD,2022-11-05 14:00:01,15.73264914,0.0001883,53.2151,68.8646,28.3221,329.4977,-0.00052791,-0.00074269,0.0,0 STARLINK-5226,1 54056U 22136F   22309.58335648 -.00074269  00000-0 -52791-3 0  9999,2 54056  53.2151  68.8646 0001883  28.3221 329.4977 15.73264914  1302,6727.71,91.529,350.842,348.30800000000005,0.0
54056.0,STARLINK-5226,PAYLOAD,2022-11-05 22:00:01,15.73241568,0.0001959,53.2148,67.2139,24.712,62.0797,-0.00057125,-0.00080181,0.0,0 STARLINK-5226,1 54056U 22136F   22309.91668981 -.00080181  00000-0 -57125-3 0  9991,2 54056  53.2148  67.2139 0001959  24.7120  62.0797 15.73241568  1300,6727.776999999999,91.531,350.96,348.324,0.0
